[{"OBJECT_NAME":"STARLINK-4474","OBJECT_ID":"2022-101W","EPOCH":"2026-03-09T10:15:08.317440","MEAN_MOTION":15.08853734,"ECCENTRICITY":0.00019503,"INCLINATION":53.2185,"RA_OF_ASC_NODE":65.3038,"ARG_OF_PERICENTER":40.5655,"MEAN_ANOMALY":319.5483,"EPHEMERIS_TYPE":0,"CLASSIFICATION_TYPE":"U","NORAD_CAT_ID":53547,"ELEMENT_SET_NO":999,"REV_AT_EPOCH":19693,"BSTAR":0.00014085464,"MEAN_MOTION_DOT":1.955e-5,"MEAN_MOTION_DDOT":0},{"OBJECT_NAME":"DELTA 2 R\/B(1)","OBJECT_ID":"1998-061C","EPOCH":"2026-03-09T09:46:57.052992","MEAN_MOTION":14.43796455,"ECCENTRICITY":0.03053372,"INCLINATION":31.4328,"RA_OF_ASC_NODE":172.9373,"ARG_OF_PERICENTER":338.6516,"MEAN_ANOMALY":20.1611,"EPHEMERIS_TYPE":0,"CLASSIFICATION_TYPE":"U","NORAD_CAT_ID":25510,"ELEMENT_SET_NO":999,"REV_AT_EPOCH":43720,"BSTAR":0.00018891877,"MEAN_MOTION_DOT":1.226e-5,"MEAN_MOTION_DDOT":0}]
